{"type": "FeatureCollection", "features": [ {"type": "Feature", "properties": {"norad_id": 34375, "name": "IRIDIUM 33 DEB", "group": "iridium-33-debris", "lat": 69.97035698150802, "lon": -9.926832609163226, "alt_km": 750.9005977766683, "timestamp": "2025-12-19T14:48:36.632736+00:00", "meta": {"OBJECT_NAME": "IRIDIUM 33 DEB", "OBJECT_ID": "1997-051FT", "EPOCH": "2025-12-19T06:39:42.607008", "MEAN_MOTION": 14.18003831, "ECCENTRICITY": 0.01036391, "INCLINATION": 86.432, "RA_OF_ASC_NODE": 180.0647, "ARG_OF_PERICENTER": 106.2708, "MEAN_ANOMALY": 71.2448, "EPHEMERIS_TYPE": 0, "CLASSIFICATION_TYPE": "U", "NORAD_CAT_ID": 34375, "ELEMENT_SET_NO": 999, "REV_AT_EPOCH": 86804, "BSTAR": 0.00032348466, "MEAN_MOTION_DOT": 7.18e-06, "MEAN_MOTION_DDOT": 0}, "tle": {"line1": "1 34375U 97051FT  25353.27757647  .00000718  00000+0  32348-3 0  9995", "line2": "2 34375  86.4320 180.0647 0103639 106.2708  71.2448 14.18003831868040"}}, "geometry": {"type": "Point", "coordinates": [-9.926832609163226, 69.97035698150802]}}, {"type": "Feature", "properties": {"norad_id": 34376, "name": "IRIDIUM 33 DEB", "group": "iridium-33-debris", "lat": 34.78159006864423, "lon": -179.1296474944559, "alt_km": 662.6720060046446, "timestamp": "2025-12-19T14:48:36.632750+00:00", "meta": {"OBJECT_NAME": "IRIDIUM 33 DEB", "OBJECT_ID": "1997-051FU", "EPOCH": "2025-12-19T07:34:56.695872", "MEAN_MOTION": 14.62652421, "ECCENTRICITY": 0.00279643, "INCLINATION": 86.2977, "RA_OF_ASC_NODE": 3.5833, "ARG_OF_PERICENTER": 144.9324, "MEAN_ANOMALY": 215.3736, "EPHEMERIS_TYPE": 0, "CLASSIFICATION_TYPE": "U", "NORAD_CAT_ID": 34376, "ELEMENT_SET_NO": 999, "REV_AT_EPOCH": 88103, "BSTAR": 0.00097382721, "MEAN_MOTION_DOT": 5.002e-05, "MEAN_MOTION_DDOT": 0}, "tle": {"line1": "1 34376U 97051FU  25353.31593398  .00005002  00000+0  97383-3 0  9993", "line2": "2 34376  86.2977   3.5833 0027964 144.9324 215.3736 14.62652421881031"}}, "geometry": {"type": "Point", "coordinates": [-179.1296474944559, 34.78159006864423]}}, {"type": "Feature", "properties": {"norad_id": 34486, "name": "IRIDIUM 33 DEB", "group": "iridium-33-debris", "lat": 73.66697783825035, "lon": 176.4191338020873, "alt_km": 562.6567300711376, "timestamp": "2025-12-19T14:48:36.632761+00:00", "meta": {"OBJECT_NAME": "IRIDIUM 33 DEB", "OBJECT_ID": "1997-051GB", "EPOCH": "2025-12-18T13:12:33.232032", "MEAN_MOTION": 14.96051759, "ECCENTRICITY": 0.00138921, "INCLINATION": 86.3929, "RA_OF_ASC_NODE": 9.3426, "ARG_OF_PERICENTER": 95.5939, "MEAN_ANOMALY": 28.9882, "EPHEMERIS_TYPE": 0, "CLASSIFICATION_TYPE": "U", "NORAD_CAT_ID": 34486, "ELEMENT_SET_NO": 999, "REV_AT_EPOCH": 89073, "BSTAR": 0.0017069689, "MEAN_MOTION_DOT": 0.00019258, "MEAN_MOTION_DDOT": 0}, "tle": {"line1": "1 34486U 97051GB  25352.55038463  .00019258  00000+0  17070-2 0  9999", "line2": "2 34486  86.3929   9.3426 0013892  95.5939  28.9882 14.96051759890732"}}, "geometry": {"type": "Point", "coordinates": [176.4191338020873, 73.66697783825035]}}, {"type": "Feature", "properties": {"norad_id": 34487, "name": "IRIDIUM 33 DEB", "group": "iridium-33-debris", "lat": -77.13802075683964, "lon": -154.31814178785106, "alt_km": 775.9036141909692, "timestamp": "2025-12-19T14:48:36.632772+00:00", "meta": {"OBJECT_NAME": "IRIDIUM 33 DEB", "OBJECT_ID": "1997-051GC", "EPOCH": "2025-12-18T07:45:56.041056", "MEAN_MOTION": 14.43223269, "ECCENTRICITY": 0.00331222, "INCLINATION": 86.3431, "RA_OF_ASC_NODE": 9.9731, "ARG_OF_PERICENTER": 110.9986, "MEAN_ANOMALY": 270.0816, "EPHEMERIS_TYPE": 0, "CLASSIFICATION_TYPE": "U", "NORAD_CAT_ID": 34487, "ELEMENT_SET_NO": 999, "REV_AT_EPOCH": 88329, "BSTAR": 0.00015301486, "MEAN_MOTION_DOT": 5.38e-06, "MEAN_MOTION_DDOT": 0}, "tle": {"line1": "1 34487U 97051GC  25352.32356529  .00000538  00000+0  15301-3 0  9998", "line2": "2 34487  86.3431   9.9731 0033122 110.9986 270.0816 14.43223269883297"}}, "geometry": {"type": "Point", "coordinates": [-154.31814178785106, -77.13802075683964]}}, {"type": "Feature", "properties": {"norad_id": 34488, "name": "IRIDIUM 33 DEB", "group": "iridium-33-debris", "lat": -37.869644328933425, "lon": 125.26699033368214, "alt_km": 487.1394577043302, "timestamp": "2025-12-19T14:48:36.632783+00:00", "meta": {"OBJECT_NAME": "IRIDIUM 33 DEB", "OBJECT_ID": "1997-051GD", "EPOCH": "2025-12-18T20:36:21.699936", "MEAN_MOTION": 15.30898743, "ECCENTRICITY": 0.00115528, "INCLINATION": 86.3236, "RA_OF_ASC_NODE": 302.7776, "ARG_OF_PERICENTER": 41.1127, "MEAN_ANOMALY": 319.099, "EPHEMERIS_TYPE": 0, "CLASSIFICATION_TYPE": "U", "NORAD_CAT_ID": 34488, "ELEMENT_SET_NO": 999, "REV_AT_EPOCH": 89333, "BSTAR": 0.0035214405, "MEAN_MOTION_DOT": 0.0010661, "MEAN_MOTION_DDOT": 0}, "tle": {"line1": "1 34488U 97051GD  25352.85858449  .00106610  00000+0  35214-2 0  9997", "line2": "2 34488  86.3236 302.7776 0011552  41.1127 319.0990 15.30898743893334"}}, "geometry": {"type": "Point", "coordinates": [125.26699033368214, -37.869644328933425]}}, {"type": "Feature", "properties": {"norad_id": 34492, "name": "IRIDIUM 33 DEB", "group": "iridium-33-debris", "lat": -80.91953677429076, "lon": -50.866396637452105, "alt_km": 748.4927264243206, "timestamp": "2025-12-19T14:48:36.632793+00:00", "meta": {"OBJECT_NAME": "IRIDIUM 33 DEB", "OBJECT_ID": "1997-051GH", "EPOCH": "2025-12-18T09:36:31.167936", "MEAN_MOTION": 14.25834729, "ECCENTRICITY": 0.01887299, "INCLINATION": 86.4707, "RA_OF_ASC_NODE": 332.3402, "ARG_OF_PERICENTER": 219.7976, "MEAN_ANOMALY": 295.0845, "EPHEMERIS_TYPE": 0, "CLASSIFICATION_TYPE": "U", "NORAD_CAT_ID": 34492, "ELEMENT_SET_NO": 999, "REV_AT_EPOCH": 85139, "BSTAR": 0.0028886567, "MEAN_MOTION_DOT": 8.305e-05, "MEAN_MOTION_DDOT": 0}, "tle": {"line1": "1 34492U 97051GH  25352.40036074  .00008305  00000+0  28887-2 0  9995", "line2": "2 34492  86.4707 332.3402 0188729 219.7976 295.0845 14.25834729851393"}}, "geometry": {"type": "Point", "coordinates": [-50.866396637452105, -80.91953677429076]}}, {"type": "Feature", "properties": {"norad_id": 34497, "name": "IRIDIUM 33 DEB", "group": "iridium-33-debris", "lat": -15.371329263300115, "lon": -129.51100016549356, "alt_km": 834.3694621616041, "timestamp": "2025-12-19T14:48:36.632804+00:00", "meta": {"OBJECT_NAME": "IRIDIUM 33 DEB", "OBJECT_ID": "1997-051GN", "EPOCH": "2025-12-18T04:30:11.149056", "MEAN_MOTION": 14.27469284, "ECCENTRICITY": 0.00783512, "INCLINATION": 86.2772, "RA_OF_ASC_NODE": 50.074, "ARG_OF_PERICENTER": 321.7487, "MEAN_ANOMALY": 93.0567, "EPHEMERIS_TYPE": 0, "CLASSIFICATION_TYPE": "U", "NORAD_CAT_ID": 34497, "ELEMENT_SET_NO": 999, "REV_AT_EPOCH": 86961, "BSTAR": 0.00048701444, "MEAN_MOTION_DOT": 1.253e-05, "MEAN_MOTION_DDOT": 0}, "tle": {"line1": "1 34497U 97051GN  25352.18762904  .00001253  00000+0  48701-3 0  9996", "line2": "2 34497  86.2772  50.0740 0078351 321.7487  93.0567 14.27469284869610"}}, "geometry": {"type": "Point", "coordinates": [-129.51100016549356, -15.371329263300115]}}, {"type": "Feature", "properties": {"norad_id": 34508, "name": "IRIDIUM 33 DEB", "group": "iridium-33-debris", "lat": -84.95715213489522, "lon": -34.281898615443495, "alt_km": 791.3065060998624, "timestamp": "2025-12-19T14:48:36.632815+00:00", "meta": {"OBJECT_NAME": "IRIDIUM 33 DEB", "OBJECT_ID": "1997-051GZ", "EPOCH": "2025-12-18T19:12:54.851040", "MEAN_MOTION": 14.38471932, "ECCENTRICITY": 0.00664842, "INCLINATION": 86.3709, "RA_OF_ASC_NODE": 100.074, "ARG_OF_PERICENTER": 153.504, "MEAN_ANOMALY": 206.9584, "EPHEMERIS_TYPE": 0, "CLASSIFICATION_TYPE": "U", "NORAD_CAT_ID": 34508, "ELEMENT_SET_NO": 999, "REV_AT_EPOCH": 87396, "BSTAR": 0.00089500959, "MEAN_MOTION_DOT": 2.823e-05, "MEAN_MOTION_DDOT": 0}, "tle": {"line1": "1 34508U 97051GZ  25352.80063485  .00002823  00000+0  89501-3 0  9993", "line2": "2 34508  86.3709 100.0740 0066484 153.5040 206.9584 14.38471932873962"}}, "geometry": {"type": "Point", "coordinates": [-34.281898615443495, -84.95715213489522]}}, {"type": "Feature", "properties": {"norad_id": 34521, "name": "IRIDIUM 33 DEB", "group": "iridium-33-debris", "lat": -19.89542557322536, "lon": 26.20721189824619, "alt_km": 688.9499266610219, "timestamp": "2025-12-19T14:48:36.632825+00:00", "meta": {"OBJECT_NAME": "IRIDIUM 33 DEB", "OBJECT_ID": "1997-051HN", "EPOCH": "2025-12-19T03:24:49.282848", "MEAN_MOTION": 14.63417651, "ECCENTRICITY": 0.0002349, "INCLINATION": 86.3791, "RA_OF_ASC_NODE": 27.7294, "ARG_OF_PERICENTER": 185.2812, "MEAN_ANOMALY": 174.8375, "EPHEMERIS_TYPE": 0, "CLASSIFICATION_TYPE": "U", "NORAD_CAT_ID": 34521, "ELEMENT_SET_NO": 999, "REV_AT_EPOCH": 88566, "BSTAR": 0.00061239026, "MEAN_MOTION_DOT": 3.188e-05, "MEAN_MOTION_DDOT": 0}, "tle": {"line1": "1 34521U 97051HN  25353.14223707  .00003188  00000+0  61239-3 0  9994", "line2": "2 34521  86.3791  27.7294 0002349 185.2812 174.8375 14.63417651885663"}}, "geometry": {"type": "Point", "coordinates": [26.20721189824619, -19.89542557322536]}}, {"type": "Feature", "properties": {"norad_id": 34525, "name": "IRIDIUM 33 DEB", "group": "iridium-33-debris", "lat": 12.622740206352084, "lon": 44.72236312222864, "alt_km": 748.2668340773789, "timestamp": "2025-12-19T14:48:36.632836+00:00", "meta": {"OBJECT_NAME": "IRIDIUM 33 DEB", "OBJECT_ID": "1997-051HS", "EPOCH": "2025-12-19T03:14:12.830208", "MEAN_MOTION": 14.42920186, "ECCENTRICITY": 0.00065078, "INCLINATION": 86.3722, "RA_OF_ASC_NODE": 44.1141, "ARG_OF_PERICENTER": 80.5154, "MEAN_ANOMALY": 309.013, "EPHEMERIS_TYPE": 0, "CLASSIFICATION_TYPE": "U", "NORAD_CAT_ID": 34525, "ELEMENT_SET_NO": 999, "REV_AT_EPOCH": 88180, "BSTAR": 0.00026538201, "MEAN_MOTION_DOT": 9.07e-06, "MEAN_MOTION_DDOT": 0}, "tle": {"line1": "1 34525U 97051HS  25353.13487072  .00000907  00000+0  26538-3 0  9993", "line2": "2 34525  86.3722  44.1141 0006507  80.5154 309.0130 14.42920186881803"}}, "geometry": {"type": "Point", "coordinates": [44.72236312222864, 12.622740206352084]}}]}